{
  "norad_id": 67207,
  "name": "STARLINK-36225",
  "history": [
    {
      "epoch": "2026-03-28T20:26:51.387360Z",
      "apogee_km": 574.7387945041719,
      "perigee_km": 569.3226677946413,
      "latitude_deg": 4.028093618034228e-05,
      "longitude_deg": -6.78548873216975,
      "height_km": 574.418920265558,
      "semi_major_axis_km": 6950.167731149406,
      "eccentricity": 0.00038964,
      "inclination_deg": 70.0011,
      "raan_deg": 126.1951,
      "arg_perigee_deg": 270.85,
      "mean_anomaly_deg": 89.2213,
      "mean_motion_rev_day": 14.98338136
    },
    {
      "epoch": "2026-03-29T02:51:04.486752Z",
      "apogee_km": 576.1423245671203,
      "perigee_km": 565.0452015385254,
      "latitude_deg": 2.8202704236942743e-05,
      "longitude_deg": -103.77696199866071,
      "height_km": 571.910474655303,
      "semi_major_axis_km": 6948.730763052823,
      "eccentricity": 0.0007985,
      "inclination_deg": 70.001,
      "raan_deg": 125.5212,
      "arg_perigee_deg": 281.5854,
      "mean_anomaly_deg": 78.4409,
      "mean_motion_rev_day": 14.98802935
    },
    {
      "epoch": "2026-03-30T04:29:32.489376Z",
      "apogee_km": 574.7461741260822,
      "perigee_km": 569.3236500002904,
      "latitude_deg": -1.2233059135731954e-06,
      "longitude_deg": -132.13939263069642,
      "height_km": 574.4433501525217,
      "semi_major_axis_km": 6950.171912063186,
      "eccentricity": 0.0003901,
      "inclination_deg": 70.001,
      "raan_deg": 122.8285,
      "arg_perigee_deg": 270.4211,
      "mean_anomaly_deg": 89.6501,
      "mean_motion_rev_day": 14.98336784
    },
    {
      "epoch": "2026-03-30T06:05:40.541280Z",
      "apogee_km": 574.7379195476778,
      "perigee_km": 569.3369389986883,
      "latitude_deg": 2.0302980147611355e-05,
      "longitude_deg": -156.4070358824375,
      "height_km": 574.4488318927807,
      "semi_major_axis_km": 6950.174429273183,
      "eccentricity": 0.00038855,
      "inclination_deg": 70.0009,
      "raan_deg": 122.6602,
      "arg_perigee_deg": 270.3594,
      "mean_anomaly_deg": 89.712,
      "mean_motion_rev_day": 14.9833597
    },
    {
      "epoch": "2026-03-30T12:30:12.444768Z",
      "apogee_km": 574.449880320627,
      "perigee_km": 569.5537855183884,
      "latitude_deg": -2.408747445663614e-05,
      "longitude_deg": 106.52211454649772,
      "height_km": 575.0390713335796,
      "semi_major_axis_km": 6950.138832919507,
      "eccentricity": 0.00035223,
      "inclination_deg": 70.0035,
      "raan_deg": 121.9855,
      "arg_perigee_deg": 255.5946,
      "mean_anomaly_deg": 104.4822,
      "mean_motion_rev_day": 14.98347481
    }
  ]
}